AO-40                   
1 26609U 00072B   02079.31559189 -.00000272  00000-0  10000-3 0  2068
2 26609   7.2928 123.2165 7933515  31.8524 357.9470  1.25597194  6373
